NORAD_CAT_ID,OBJECT_NAME,OBJECT_TYPE,EPOCH,MEAN_MOTION,ECCENTRICITY,INCLINATION,RA_OF_ASC_NODE,ARG_OF_PERICENTER,MEAN_ANOMALY,BSTAR,MEAN_MOTION_DOT,MEAN_MOTION_DDOT,TLE_LINE0,TLE_LINE1,TLE_LINE2,SEMIMAJOR_AXIS,PERIOD,APOGEE,PERIGEE,DECAYED
52377.0,STARLINK-3805,PAYLOAD,2023-11-23 07:03:14,15.08832135,0.0001597,53.2173,348.5588,102.1718,257.9453,-0.00011352,-2.094e-05,0.0,0 STARLINK-3805,1 52377U 22045AY  23327.29392188 -.00002094  00000-0 -11352-3 0  9998,2 52377  53.2173 348.5588 0001597 102.1718 257.9453 15.08832135 89491,6917.904,95.438,540.874,538.665,0.0
52377.0,STARLINK-3805,PAYLOAD,2023-11-24 11:40:12,15.08834431,0.0001635,53.2172,343.2047,114.4058,245.7105,9.7572e-05,1.265e-05,0.0,0 STARLINK-3805,1 52377U 22045AY  23328.48625006  .00001265  00000-0  97572-4 0  9994,2 52377  53.2172 343.2047 0001635 114.4058 245.7105 15.08834431 89678,6917.897,95.438,540.893,538.631,0.0
52377.0,STARLINK-3805,PAYLOAD,2023-11-25 08:20:12,15.0885113,0.000163,53.2169,339.3394,108.6129,251.5041,0.00055256,8.52e-05,0.0,0 STARLINK-3805,1 52377U 22045AY  23329.34737090  .00008520  00000-0  55256-3 0  9990,2 52377  53.2169 339.3394 0001630 108.6129 251.5041 15.08851130 89808,6917.846,95.437,540.839,538.584,0.0
52377.0,STARLINK-3805,PAYLOAD,2023-11-25 22:38:40,15.08854607,0.0001544,53.2165,336.6628,99.8997,260.217,0.00042849,6.541e-05,0.0,0 STARLINK-3805,1 52377U 22045AY  23329.94352849  .00006541  00000-0  42849-3 0  9996,2 52377  53.2165 336.6628 0001544  99.8997 260.2170 15.08854607 89893,6917.836,95.437,540.769,538.633,0.0
52377.0,STARLINK-3805,PAYLOAD,2023-11-26 08:10:58,15.08868259,0.000144,53.2173,334.8783,103.8226,256.2926,0.00056515,8.725e-05,0.0,0 STARLINK-3805,1 52377U 22045AY  23330.34095885  .00008725  00000-0  56515-3 0  9997,2 52377  53.2173 334.8783 0001440 103.8226 256.2926 15.08868259 89959,6917.794,95.436,540.655,538.663,0.0
52377.0,STARLINK-3805,PAYLOAD,2023-11-26 22:29:27,15.08846742,0.0001703,53.2176,332.2046,102.7744,257.3439,7.2782e-05,8.71e-06,0.0,0 STARLINK-3805,1 52377U 22045AY  23330.93712470  .00000871  00000-0  72782-4 0  9997,2 52377  53.2176 332.2046 0001703 102.7744 257.3439 15.08846742 90047,6917.86,95.437,540.903,538.547,0.0
52377.0,STARLINK-3805,PAYLOAD,2023-11-27 09:37:09,15.08852872,0.0001815,53.2178,330.1203,105.6851,254.4342,0.00012335,1.676e-05,0.0,0 STARLINK-3805,1 52377U 22045AY  23331.40079960  .00001676  00000-0  12335-3 0  9991,2 52377  53.2178 330.1203 0001815 105.6851 254.4342 15.08852872 90116,6917.841,95.437,540.962,538.45,0.0
52377.0,STARLINK-3805,PAYLOAD,2023-11-27 22:20:15,15.08825968,0.0001715,53.2174,327.7492,116.8258,243.2909,-0.00019746,-3.428e-05,0.0,0 STARLINK-3805,1 52377U 22045AY  23331.93073325 -.00003428  00000-0 -19746-3 0  9990,2 52377  53.2174 327.7492 0001715 116.8258 243.2909 15.08825968 90197,6917.923,95.438,540.975,538.602,0.0
52377.0,STARLINK-3805,PAYLOAD,2023-11-28 09:27:57,15.08836771,0.000184,53.2173,325.66,126.0177,234.0986,0.00023054,3.383e-05,0.0,0 STARLINK-3805,1 52377U 22045AY  23332.39441172  .00003383  00000-0  23054-3 0  9995,2 52377  53.2173 325.6600 0001840 126.0177 234.0986 15.08836771 90261,6917.89,95.438,541.028,538.482,0.0
52377.0,STARLINK-3805,PAYLOAD,2023-11-29 02:57:12,15.08833877,0.0001757,53.2163,322.3876,105.8364,254.2822,0.00027638,4.113e-05,0.0,0 STARLINK-3805,1 52377U 22045AY  23333.12306061  .00004113  00000-0  27638-3 0  9998,2 52377  53.2163 322.3876 0001757 105.8364 254.2822 15.08833877 90378,6917.899,95.438,540.98,538.549,0.0
52377.0,STARLINK-3805,PAYLOAD,2023-11-29 09:18:44,15.08843084,0.0001768,53.2181,321.1958,95.6507,264.4686,0.00038252,5.806e-05,0.0,0 STARLINK-3805,1 52377U 22045AY  23333.38801793  .00005806  00000-0  38252-3 0  9992,2 52377  53.2181 321.1958 0001768  95.6507 264.4686 15.08843084 90410,6917.871,95.437,540.959,538.513,0.0
52377.0,STARLINK-3805,PAYLOAD,2023-11-30 02:47:59,15.08842606,0.0001663,53.2171,317.9219,107.1159,253.0015,0.00029758,4.451e-05,0.0,0 STARLINK-3805,1 52377U 22045AY  23334.11665918  .00004451  00000-0  29758-3 0  9997,2 52377  53.2171 317.9219 0001663 107.1159 253.0015 15.08842606 90529,6917.872,95.437,540.888,538.587,0.0
52377.0,STARLINK-3805,PAYLOAD,2023-12-01 04:14:09,15.0883719,0.0001793,53.2182,313.165,109.6797,250.4389,3.948e-05,3.4e-06,0.0,0 STARLINK-3805,1 52377U 22045AY  23335.17650298  .00000340  00000-0  39480-4 0  9996,2 52377  53.2182 313.1650 0001793 109.6797 250.4389 15.08837190 90681,6917.889,95.438,540.994,538.514,0.0
52377.0,STARLINK-3805,PAYLOAD,2023-12-01 23:18:47,15.08851058,0.0001673,53.218,309.5946,108.6518,251.4656,0.00031534,4.736e-05,0.0,0 STARLINK-3805,1 52377U 22045AY  23335.97137847  .00004736  00000-0  31534-3 0  9998,2 52377  53.2180 309.5946 0001673 108.6518 251.4656 15.08851058 90804,6917.847,95.437,540.869,538.554,0.0
52377.0,STARLINK-3805,PAYLOAD,2023-12-02 07:15:41,15.08897624,0.0001377,53.2189,308.1166,88.7451,271.3699,0.0013851,0.00021859,0.0,0 STARLINK-3805,1 52377U 22045AY  23336.30256160  .00021859  00000-0  13851-2 0  9992,2 52377  53.2189 308.1166 0001377  88.7451 271.3699 15.08897624 90859,6917.704,95.434,540.522,538.617,0.0
52377.0,STARLINK-3805,PAYLOAD,2023-12-03 03:55:42,15.08852581,0.0001579,53.2177,304.2507,89.7679,270.3494,6.1442e-05,6.9e-06,0.0,0 STARLINK-3805,1 52377U 22045AY  23337.16368845  .00000690  00000-0  61442-4 0  9992,2 52377  53.2177 304.2507 0001579  89.7679 270.3494 15.08852581 90988,6917.842,95.437,540.799,538.615,0.0
52377.0,STARLINK-3805,PAYLOAD,2023-12-03 05:31:05,15.08854233,0.0001595,53.2177,303.9526,95.1732,264.9442,0.00010399,1.368e-05,0.0,0 STARLINK-3805,1 52377U 22045AY  23337.22992743  .00001368  00000-0  10399-3 0  9996,2 52377  53.2177 303.9526 0001595  95.1732 264.9442 15.08854233 90993,6917.837,95.437,540.805,538.598,0.0
52377.0,STARLINK-3805,PAYLOAD,2023-12-04 03:46:30,15.08825431,0.0001568,53.2176,299.7914,90.0935,270.0236,-0.000308,-5.185e-05,0.0,0 STARLINK-3805,1 52377U 22045AY  23338.15729768 -.00005185  00000-0 -30800-3 0  9996,2 52377  53.2176 299.7914 0001568  90.0935 270.0236 15.08825431 91138,6917.925,95.438,540.875,538.705,0.0
52377.0,STARLINK-3805,PAYLOAD,2023-12-04 06:57:16,15.08826233,0.000162,53.2178,299.1965,87.7585,272.3593,-0.0001608,-2.845e-05,0.0,0 STARLINK-3805,1 52377U 22045AY  23338.28977955 -.00002845  00000-0 -16080-3 0  9997,2 52377  53.2178 299.1965 0001620  87.7585 272.3593 15.08826233 91157,6917.922,95.438,540.908,538.667,0.0
52377.0,STARLINK-3805,PAYLOAD,2023-12-04 21:15:45,15.08832499,0.000152,53.2166,296.52,105.4668,254.6492,0.0003151,4.729e-05,0.0,0 STARLINK-3805,1 52377U 22045AY  23338.88594500  .00004729  00000-0  31510-3 0  9990,2 52377  53.2166 296.5200 0001520 105.4668 254.6492 15.08832499 91248,6917.903,95.438,540.82,538.717,0.0
52377.0,STARLINK-3805,PAYLOAD,2023-12-05 03:37:18,15.08845278,0.0001577,53.2162,295.3311,97.2041,262.913,0.0010698,0.00016781,0.0,0 STARLINK-3805,1 52377U 22045AY  23339.15090693  .00016781  00000-0  10698-2 0  9999,2 52377  53.2162 295.3311 0001577  97.2041 262.9130 15.08845278 91283,6917.864,95.437,540.82,538.638,0.0
52377.0,STARLINK-3805,PAYLOAD,2023-12-05 06:48:03,15.08872128,0.0001159,53.2171,294.7343,123.5262,236.5841,0.001759,0.00027842,0.0,0 STARLINK-3805,1 52377U 22045AY  23339.28337836  .00027842  00000-0  17590-2 0  9994,2 52377  53.2171 294.7343 0001159 123.5262 236.5841 15.08872128 91308,6917.782,95.436,540.449,538.845,0.0
52377.0,STARLINK-3805,PAYLOAD,2023-12-05 21:06:32,15.08850337,0.0001587,53.2164,292.0596,90.3663,269.7511,0.00051466,7.915e-05,0.0,0 STARLINK-3805,1 52377U 22045AY  23339.87954369  .00007915  00000-0  51466-3 0  9995,2 52377  53.2164 292.0596 0001587  90.3663 269.7511 15.08850337 91391,6917.849,95.437,540.812,538.616,0.0
52377.0,STARLINK-3805,PAYLOAD,2023-12-06 03:28:05,15.08848533,0.0001415,53.2166,290.8704,77.2452,282.8699,0.00044853,6.859e-05,0.0,0 STARLINK-3805,1 52377U 22045AY  23340.14450392  .00006859  00000-0  44853-3 0  9992,2 52377  53.2166 290.8704 0001415  77.2452 282.8699 15.08848533 91433,6917.854,95.437,540.698,538.74,0.0
52377.0,STARLINK-3805,PAYLOAD,2023-12-06 13:00:24,15.08844326,0.0001572,53.2167,289.0866,67.2112,292.9046,0.00038113,5.784e-05,0.0,0 STARLINK-3805,1 52377U 22045AY  23340.54194502  .00005784  00000-0  38113-3 0  9992,2 52377  53.2167 289.0866 0001572  67.2112 292.9046 15.08844326 91499,6917.867,95.437,540.82,538.645,0.0
52377.0,STARLINK-3805,PAYLOAD,2023-12-07 01:43:29,15.08840009,0.000156,53.2171,286.7076,78.9545,281.1623,0.00010393,1.366e-05,0.0,0 STARLINK-3805,1 52377U 22045AY  23341.07186659  .00001366  00000-0  10393-3 0  9997,2 52377  53.2171 286.7076 0001560  78.9545 281.1623 15.08840009 91571,6917.88,95.438,540.825,538.666,0.0
52377.0,STARLINK-3805,PAYLOAD,2023-12-08 01:34:16,15.08839269,0.0001614,53.2173,282.2459,78.1607,281.9566,9.739e-05,1.262e-05,0.0,0 STARLINK-3805,1 52377U 22045AY  23342.06546808  .00001262  00000-0  97390-4 0  9991,2 52377  53.2173 282.2459 0001614  78.1607 281.9566 15.08839269 91727,6917.883,95.438,540.864,538.631,0.0
52377.0,STARLINK-3805,PAYLOAD,2023-12-08 19:03:31,15.08838865,0.000151,53.2163,278.9768,74.9427,285.1733,0.00012578,1.714e-05,0.0,0 STARLINK-3805,1 52377U 22045AY  23342.79410936  .00001714  00000-0  12578-3 0  9999,2 52377  53.2163 278.9768 0001510  74.9427 285.1733 15.08838865 91835,6917.884,95.438,540.793,538.704,0.0
52377.0,STARLINK-3805,PAYLOAD,2023-12-09 01:25:02,15.08849913,7.88e-05,53.2145,277.7812,99.9423,260.1658,0.00018805,2.707e-05,0.0,0 STARLINK-3805,1 52377U 22045AY  23343.05906207  .00002707  00000-0  18805-3 0  9992,2 52377  53.2145 277.7812 0000788  99.9423 260.1658 15.08849913 91870,6917.85,95.437,540.26,539.17,0.0
52377.0,STARLINK-3805,PAYLOAD,2023-12-09 06:11:12,15.08847817,7.98e-05,53.2149,276.8911,90.2696,269.8388,0.00013324,1.834e-05,0.0,0 STARLINK-3805,1 52377U 22045AY  23343.25778252  .00001834  00000-0  13324-3 0  9992,2 52377  53.2149 276.8911 0000798  90.2696 269.8388 15.08847817 91902,6917.856,95.437,540.274,539.169,0.0
